{"type": "FeatureCollection", "features": [ {"type": "Feature", "properties": {"norad_id": 66574, "name": "STARLINK-35812", "group": "last-30-days", "lat": -32.908308427713756, "lon": 25.041491965407385, "alt_km": 375.1755969185115, "timestamp": "2025-12-05T22:40:47.342470+00:00", "meta": {"OBJECT_NAME": "STARLINK-35812", "OBJECT_ID": "2025-268T", "EPOCH": "2025-12-05T06:00:02.000160", "MEAN_MOTION": 15.67858809, "ECCENTRICITY": 0.0001728, "INCLINATION": 42.9997, "RA_OF_ASC_NODE": 165.2188, "ARG_OF_PERICENTER": 264.1752, "MEAN_ANOMALY": 5.0161, "EPHEMERIS_TYPE": 0, "CLASSIFICATION_TYPE": "U", "NORAD_CAT_ID": 66574, "ELEMENT_SET_NO": 999, "REV_AT_EPOCH": 346, "BSTAR": -0.019883556, "MEAN_MOTION_DOT": -0.0198774, "MEAN_MOTION_DDOT": 0}, "tle": {"line1": "1 66574U 25268T   25339.25002315 -.01987740  00000+0 -19884-1 0  9999", "line2": "2 66574  42.9997 165.2188 0001728 264.1752   5.0161 15.67858809  3469"}}, "geometry": {"type": "Point", "coordinates": [25.041491965407385, -32.908308427713756]}}, {"type": "Feature", "properties": {"norad_id": 66575, "name": "STARLINK-35810", "group": "last-30-days", "lat": -33.830618192655365, "lon": 27.043656134739834, "alt_km": 375.1710003179769, "timestamp": "2025-12-05T22:40:47.342481+00:00", "meta": {"OBJECT_NAME": "STARLINK-35810", "OBJECT_ID": "2025-268U", "EPOCH": "2025-12-05T06:00:02.000160", "MEAN_MOTION": 15.67863703, "ECCENTRICITY": 0.00017433, "INCLINATION": 42.9996, "RA_OF_ASC_NODE": 165.214, "ARG_OF_PERICENTER": 262.5108, "MEAN_ANOMALY": 8.5953, "EPHEMERIS_TYPE": 0, "CLASSIFICATION_TYPE": "U", "NORAD_CAT_ID": 66575, "ELEMENT_SET_NO": 999, "REV_AT_EPOCH": 346, "BSTAR": -0.019951639, "MEAN_MOTION_DOT": -0.01994097, "MEAN_MOTION_DDOT": 0}, "tle": {"line1": "1 66575U 25268U   25339.25002315 -.01994097  00000+0 -19952-1 0  9999", "line2": "2 66575  42.9996 165.2140 0001743 262.5108   8.5953 15.67863703  3467"}}, "geometry": {"type": "Point", "coordinates": [27.043656134739834, -33.830618192655365]}}, {"type": "Feature", "properties": {"norad_id": 66576, "name": "STARLINK-35814", "group": "last-30-days", "lat": -34.7235306695241, "lon": 29.09795116287151, "alt_km": 375.13740277618126, "timestamp": "2025-12-05T22:40:47.342493+00:00", "meta": {"OBJECT_NAME": "STARLINK-35814", "OBJECT_ID": "2025-268V", "EPOCH": "2025-12-05T06:00:02.000160", "MEAN_MOTION": 15.67856515, "ECCENTRICITY": 0.00017784, "INCLINATION": 42.9995, "RA_OF_ASC_NODE": 165.2093, "ARG_OF_PERICENTER": 262.0254, "MEAN_ANOMALY": 11.0001, "EPHEMERIS_TYPE": 0, "CLASSIFICATION_TYPE": "U", "NORAD_CAT_ID": 66576, "ELEMENT_SET_NO": 999, "REV_AT_EPOCH": 346, "BSTAR": -0.01983935, "MEAN_MOTION_DOT": -0.01983725, "MEAN_MOTION_DDOT": 0}, "tle": {"line1": "1 66576U 25268V   25339.25002315 -.01983725  00000+0 -19839-1 0  9990", "line2": "2 66576  42.9995 165.2093 0001778 262.0254  11.0001 15.67856515  3465"}}, "geometry": {"type": "Point", "coordinates": [29.09795116287151, -34.7235306695241]}}, {"type": "Feature", "properties": {"norad_id": 66577, "name": "STARLINK-35815", "group": "last-30-days", "lat": -35.577166333923884, "lon": 31.186040147136705, "alt_km": 375.2280554689296, "timestamp": "2025-12-05T22:40:47.342505+00:00", "meta": {"OBJECT_NAME": "STARLINK-35815", "OBJECT_ID": "2025-268W", "EPOCH": "2025-12-05T06:00:02.000160", "MEAN_MOTION": 15.67859051, "ECCENTRICITY": 0.00017799, "INCLINATION": 42.9995, "RA_OF_ASC_NODE": 165.2044, "ARG_OF_PERICENTER": 265.9502, "MEAN_ANOMALY": 8.9896, "EPHEMERIS_TYPE": 0, "CLASSIFICATION_TYPE": "U", "NORAD_CAT_ID": 66577, "ELEMENT_SET_NO": 999, "REV_AT_EPOCH": 346, "BSTAR": -0.019861535, "MEAN_MOTION_DOT": -0.01985862, "MEAN_MOTION_DDOT": 0}, "tle": {"line1": "1 66577U 25268W   25339.25002315 -.01985862  00000+0 -19862-1 0  9991", "line2": "2 66577  42.9995 165.2044 0001779 265.9502   8.9896 15.67859051  3466"}}, "geometry": {"type": "Point", "coordinates": [31.186040147136705, -35.577166333923884]}}, {"type": "Feature", "properties": {"norad_id": 66578, "name": "STARLINK-35743", "group": "last-30-days", "lat": -36.39551538193042, "lon": 33.32277164522263, "alt_km": 375.2184127423852, "timestamp": "2025-12-05T22:40:47.342515+00:00", "meta": {"OBJECT_NAME": "STARLINK-35743", "OBJECT_ID": "2025-268X", "EPOCH": "2025-12-05T06:00:02.000160", "MEAN_MOTION": 15.67861921, "ECCENTRICITY": 0.00017445, "INCLINATION": 42.9996, "RA_OF_ASC_NODE": 165.1998, "ARG_OF_PERICENTER": 262.8309, "MEAN_ANOMALY": 14.0248, "EPHEMERIS_TYPE": 0, "CLASSIFICATION_TYPE": "U", "NORAD_CAT_ID": 66578, "ELEMENT_SET_NO": 999, "REV_AT_EPOCH": 346, "BSTAR": -0.019898056, "MEAN_MOTION_DOT": -0.01989255, "MEAN_MOTION_DDOT": 0}, "tle": {"line1": "1 66578U 25268X   25339.25002315 -.01989255  00000+0 -19898-1 0  9991", "line2": "2 66578  42.9996 165.1998 0001744 262.8309  14.0248 15.67861921  3466"}}, "geometry": {"type": "Point", "coordinates": [33.32277164522263, -36.39551538193042]}}, {"type": "Feature", "properties": {"norad_id": 66579, "name": "STARLINK-35868", "group": "last-30-days", "lat": -37.1728313427708, "lon": 35.49854248850032, "alt_km": 375.2001901465319, "timestamp": "2025-12-05T22:40:47.342525+00:00", "meta": {"OBJECT_NAME": "STARLINK-35868", "OBJECT_ID": "2025-268Y", "EPOCH": "2025-12-05T06:00:02.000160", "MEAN_MOTION": 15.6786196, "ECCENTRICITY": 0.00018104, "INCLINATION": 42.9994, "RA_OF_ASC_NODE": 165.1948, "ARG_OF_PERICENTER": 262.5535, "MEAN_ANOMALY": 16.2216, "EPHEMERIS_TYPE": 0, "CLASSIFICATION_TYPE": "U", "NORAD_CAT_ID": 66579, "ELEMENT_SET_NO": 999, "REV_AT_EPOCH": 346, "BSTAR": -0.019929805, "MEAN_MOTION_DOT": -0.01992106, "MEAN_MOTION_DDOT": 0}, "tle": {"line1": "1 66579U 25268Y   25339.25002315 -.01992106  00000+0 -19930-1 0  9998", "line2": "2 66579  42.9994 165.1948 0001810 262.5535  16.2216 15.67861960  3464"}}, "geometry": {"type": "Point", "coordinates": [35.49854248850032, -37.1728313427708]}}, {"type": "Feature", "properties": {"norad_id": 66580, "name": "STARLINK-35872", "group": "last-30-days", "lat": -37.91225365791262, "lon": 37.72729078035749, "alt_km": 375.26168577448425, "timestamp": "2025-12-05T22:40:47.342534+00:00", "meta": {"OBJECT_NAME": "STARLINK-35872", "OBJECT_ID": "2025-268Z", "EPOCH": "2025-12-05T06:00:02.000160", "MEAN_MOTION": 15.67862502, "ECCENTRICITY": 0.00017244, "INCLINATION": 42.9995, "RA_OF_ASC_NODE": 165.1905, "ARG_OF_PERICENTER": 262.5441, "MEAN_ANOMALY": 18.1462, "EPHEMERIS_TYPE": 0, "CLASSIFICATION_TYPE": "U", "NORAD_CAT_ID": 66580, "ELEMENT_SET_NO": 999, "REV_AT_EPOCH": 346, "BSTAR": -0.01991038, "MEAN_MOTION_DOT": -0.01990365, "MEAN_MOTION_DDOT": 0}, "tle": {"line1": "1 66580U 25268Z   25339.25002315 -.01990365  00000+0 -19910-1 0  9993", "line2": "2 66580  42.9995 165.1905 0001724 262.5441  18.1462 15.67862502  3467"}}, "geometry": {"type": "Point", "coordinates": [37.72729078035749, -37.91225365791262]}}, {"type": "Feature", "properties": {"norad_id": 66581, "name": "STARLINK-35744", "group": "last-30-days", "lat": -38.60619695987577, "lon": 39.99040146174649, "alt_km": 375.2660549523516, "timestamp": "2025-12-05T22:40:47.342545+00:00", "meta": {"OBJECT_NAME": "STARLINK-35744", "OBJECT_ID": "2025-268AA", "EPOCH": "2025-12-05T06:00:02.000160", "MEAN_MOTION": 15.67861755, "ECCENTRICITY": 0.00017832, "INCLINATION": 42.9996, "RA_OF_ASC_NODE": 165.1849, "ARG_OF_PERICENTER": 264.3258, "MEAN_ANOMALY": 18.2834, "EPHEMERIS_TYPE": 0, "CLASSIFICATION_TYPE": "U", "NORAD_CAT_ID": 66581, "ELEMENT_SET_NO": 999, "REV_AT_EPOCH": 341, "BSTAR": -0.019922093, "MEAN_MOTION_DOT": -0.0199139, "MEAN_MOTION_DDOT": 0}, "tle": {"line1": "1 66581U 25268AA  25339.25002315 -.01991390  00000+0 -19922-1 0  9996", "line2": "2 66581  42.9996 165.1849 0001783 264.3258  18.2834 15.67861755  3415"}}, "geometry": {"type": "Point", "coordinates": [39.99040146174649, -38.60619695987577]}}, {"type": "Feature", "properties": {"norad_id": 66582, "name": "STARLINK-35746", "group": "last-30-days", "lat": -39.2581144830636, "lon": 42.307122670765274, "alt_km": 375.2160393442846, "timestamp": "2025-12-05T22:40:47.342555+00:00", "meta": {"OBJECT_NAME": "STARLINK-35746", "OBJECT_ID": "2025-268AB", "EPOCH": "2025-12-05T06:00:02.000160", "MEAN_MOTION": 15.67857911, "ECCENTRICITY": 0.00018368, "INCLINATION": 42.9996, "RA_OF_ASC_NODE": 165.18, "ARG_OF_PERICENTER": 264.0395, "MEAN_ANOMALY": 20.486, "EPHEMERIS_TYPE": 0, "CLASSIFICATION_TYPE": "U", "NORAD_CAT_ID": 66582, "ELEMENT_SET_NO": 999, "REV_AT_EPOCH": 346, "BSTAR": -0.019840784, "MEAN_MOTION_DOT": -0.01984, "MEAN_MOTION_DDOT": 0}, "tle": {"line1": "1 66582U 25268AB  25339.25002315 -.01984000  00000+0 -19841-1 0  9997", "line2": "2 66582  42.9996 165.1800 0001836 264.0395  20.4860 15.67857911  3469"}}, "geometry": {"type": "Point", "coordinates": [42.307122670765274, -39.2581144830636]}}, {"type": "Feature", "properties": {"norad_id": 66583, "name": "STARLINK-35941", "group": "last-30-days", "lat": -39.861163157385, "lon": 44.65773433248282, "alt_km": 375.2070141574359, "timestamp": "2025-12-05T22:40:47.342583+00:00", "meta": {"OBJECT_NAME": "STARLINK-35941", "OBJECT_ID": "2025-268AC", "EPOCH": "2025-12-05T06:00:02.000160", "MEAN_MOTION": 15.6785838, "ECCENTRICITY": 0.00018737, "INCLINATION": 42.9997, "RA_OF_ASC_NODE": 165.1753, "ARG_OF_PERICENTER": 264.1717, "MEAN_ANOMALY": 22.2713, "EPHEMERIS_TYPE": 0, "CLASSIFICATION_TYPE": "U", "NORAD_CAT_ID": 66583, "ELEMENT_SET_NO": 999, "REV_AT_EPOCH": 346, "BSTAR": -0.019857669, "MEAN_MOTION_DOT": -0.0198555, "MEAN_MOTION_DDOT": 0}, "tle": {"line1": "1 66583U 25268AC  25339.25002315 -.01985550  00000+0 -19858-1 0  9997", "line2": "2 66583  42.9997 165.1753 0001873 264.1717  22.2713 15.67858380  3466"}}, "geometry": {"type": "Point", "coordinates": [44.65773433248282, -39.861163157385]}}]}